SENTINEL-2A             
1 40697U 15028A   26198.28463184 -.00000180  00000+0 -52036-4 0  9994
2 40697  98.5679 272.7076 0001281  95.4745 264.6584 14.30814040578032
SENTINEL-2B             
1 42063U 17013A   26198.27744161 -.00000146  00000+0 -38975-4 0  9993
2 42063  98.5686 272.6258 0001197  91.3599 268.7721 14.30814908488949
SENTINEL-2C             
1 60989U 24157A   26198.17256120  .00000051  00000+0  35920-4 0  9999
2 60989  98.5684 272.5288 0000996 104.2844 255.8450 14.30816028 97272
